H1 CPF 01  gfz 2022 09 04 00  7471 terrasarx 
H2 0702601  6201 31698    2022 09 04 00 59 42 2022 09 09 00 00 42   120 1 1  0 0 0
H9
10 0 59829  42462.000000  0    -983793.855   3118161.364  -6070141.583
10 0 59829  42582.000000  0    -935734.857   3907851.671  -5602467.356
10 0 59829  42702.000000  0    -858215.118   4628612.845  -5036856.477
10 0 59829  42822.000000  0    -753886.111   5267361.099  -4383109.562
10 0 59829  42942.000000  0    -626083.989   5812461.296  -3652585.860
10 0 59829  43062.000000  0    -478746.720   6253948.302  -2858013.954
10 0 59829  43182.000000  0    -316316.244   6583720.794  -2013275.993
10 0 59829  43302.000000  0    -143627.948   6795702.695  -1133167.093
10 0 59829  43422.000000  0      34210.316   6885966.972   -233134.517
10 0 59829  43542.000000  0     211947.179   6852818.235    670998.462
10 0 59829  43662.000000  0     384321.066   6696831.240   1563318.900
10 0 59829  43782.000000  0     546193.638   6420842.407   2428113.891
10 0 59829  43902.000000  0     692679.489   6029895.001   3250154.958
10 0 59829  44022.000000  0     819269.838   5531142.075   4014972.640
10 0 59829  44142.000000  0     921949.238   4933709.734   4709116.152
10 0 59829  44262.000000  0     997297.620   4248517.670   5320395.747
10 0 59829  44382.000000  0    1042578.574   3488067.549   5838091.552
10 0 59829  44502.000000  0    1055812.630   2666207.669   6253137.311
10 0 59829  44622.000000  0    1035831.315   1797873.957   6558274.026
10 0 59829  44742.000000  0     982312.887    898813.831   6748171.095
10 0 59829  44862.000000  0     895798.922    -14701.635   6819512.925
10 0 59829  44982.000000  0     777691.372   -926170.752   6771053.434
10 0 59829  45102.000000  0     630229.795  -1819159.164   6603637.729
10 0 59829  45222.000000  0     456449.040  -2677595.902   6320188.541
10 0 59829  45342.000000  0     260118.143  -3486064.266   5925658.328
10 0 59829  45462.000000  0      45661.920  -4230079.830   5426945.045
10 0 59829  45582.000000  0    -181932.958  -4896351.752   4832778.033
10 0 59829  45702.000000  0    -417226.431  -5473027.064   4153573.701
10 0 59829  45822.000000  0    -654447.549  -5949912.510   3401257.411
10 0 59829  45942.000000  0    -887627.652  -6318664.474   2589055.265
10 0 59829  46062.000000  0   -1110739.836  -6572944.335   1731260.461
10 0 59829  46182.000000  0   -1317842.363  -6708536.762    842978.956
10 0 59829  46302.000000  0   -1503224.234  -6723426.022    -60144.519
10 0 59829  46422.000000  0   -1661545.377  -6617826.035   -962211.213
10 0 59829  46542.000000  0   -1787969.476  -6394165.819  -1847356.951
10 0 59829  46662.000000  0   -1878286.552  -6057031.092  -2700038.751
10 0 59829  46782.000000  0   -1929022.407  -5613063.254  -3505314.021
10 0 59829  46902.000000  0   -1937531.722  -5070817.805  -4249105.706
10 0 59829  47022.000000  0   -1902072.448  -4440587.322  -4918446.931
10 0 59829  47142.000000  0   -1821860.525  -3734195.298  -5501701.411
10 0 59829  47262.000000  0   -1697104.193  -2964765.948  -5988757.602
10 0 59829  47382.000000  0   -1529017.136  -2146474.253  -6371194.437
10 0 59829  47502.000000  0   -1319810.373  -1294281.378  -6642415.398
10 0 59829  47622.000000  0   -1072664.191   -423662.043  -6797750.909
10 0 59829  47742.000000  0    -791680.535    449672.471  -6834529.750
10 0 59829  47862.000000  0    -481815.331   1310051.030  -6752119.398
10 0 59829  47982.000000  0    -148793.204   2142116.455  -6551935.470
10 0 59829  48102.000000  0     200994.249   2931092.756  -6237421.104
10 0 59829  48222.000000  0     560607.711   3663044.365  -5813995.677
10 0 59829  48342.000000  0     922693.777   4325121.192  -5288969.833
10 0 59829  48462.000000  0    1279630.147   4905786.068  -4671430.817
10 0 59829  48582.000000  0    1623681.560   5395022.659  -3972096.612
10 0 59829  48702.000000  0    1947163.053   5784517.082  -3203138.837
10 0 59829  48822.000000  0    2242606.800   6067809.839  -2377978.272
10 0 59829  48942.000000  0    2502929.550   6240415.117  -1511054.415
10 0 59829  49062.000000  0    2721596.192   6299902.714   -617571.849
10 0 59829  49182.000000  0    2892774.931   6245938.798    286771.189
10 0 59829  49302.000000  0    3011479.961   6080284.319   1186065.188
10 0 59829  49422.000000  0    3073698.099   5806752.151   2064476.851
10 0 59829  49542.000000  0    3076496.007   5431123.144   2906536.286
10 0 59829  49662.000000  0    3018105.539   4961022.593   3697417.352
10 0 59829  49782.000000  0    2897985.423   4405760.995   4423204.727
10 0 59829  49902.000000  0    2716855.543   3776142.416   5071144.166
10 0 59829  50022.000000  0    2476702.916   3084244.152   5629865.762
10 0 59829  50142.000000  0    2180763.995   2343178.285   6089578.469
10 0 59829  50262.000000  0    1833481.906   1566838.445   6442237.650
10 0 59829  50382.000000  0    1440437.819    769634.375   6681680.299
10 0 59829  50502.000000  0    1008259.221    -33777.143   6803725.272
10 0 59829  50622.000000  0     544507.597   -828760.245   6806242.288
10 0 59829  50742.000000  0      57545.886  -1600966.880   6689188.010
10 0 59829  50862.000000  0    -443612.524  -2336595.601   6454606.366
10 0 59829  50982.000000  0    -949470.363  -3022638.677   6106594.246
10 0 59829  51102.000000  0   -1450224.132  -3647112.504   5651232.548
10 0 59829  51222.000000  0   -1935951.707  -4199268.828   5096486.983
10 0 59829  51342.000000  0   -2396809.411  -4669785.379   4452077.064
10 0 59829  51462.000000  0   -2823233.805  -5050931.308   3729311.568
10 0 59829  51582.000000  0   -3206141.936  -5336702.242   2940891.800
10 0 59829  51702.000000  0   -3537124.832  -5522920.698   2100687.635
10 0 59829  51822.000000  0   -3808631.170  -5607301.404   1223491.150
10 0 59829  51942.000000  0   -4014136.950  -5589479.081    324750.817
10 0 59829  52062.000000  0   -4148296.214  -5470997.423   -579707.849
10 0 59829  52182.000000  0   -4207069.052  -5255259.679  -1473970.054
10 0 59829  52302.000000  0   -4187822.775  -4947440.690  -2342321.223
10 0 59829  52422.000000  0   -4089403.904  -4554363.195  -3169530.574
10 0 59829  52542.000000  0   -3912179.293  -4084342.737  -3941122.328
10 0 59829  52662.000000  0   -3658046.288  -3547006.264  -4643629.045
10 0 59829  52782.000000  0   -3330412.715  -2953089.250  -5264823.326
10 0 59829  52902.000000  0   -2934147.284  -2314215.801  -5793923.668
10 0 59829  53022.000000  0   -2475502.666  -1642667.956  -6221771.962
10 0 59829  53142.000000  0   -1962012.412   -951148.183  -6540981.792
10 0 59829  53262.000000  0   -1402363.742   -252539.852  -6746054.119
10 0 59829  53382.000000  0    -806250.617    440328.836  -6833460.545
10 0 59829  53502.000000  0    -184208.744   1114914.244  -6801697.462
10 0 59829  53622.000000  0     452566.207   1759178.541  -6651308.796
10 0 59829  53742.000000  0    1092414.125   2361798.936  -6384879.605
10 0 59829  53862.000000  0    1723420.208   2912363.948  -6006997.223
10 0 59829  53982.000000  0    2333632.360   3401552.561  -5524180.110
10 0 59829  54102.000000  0    2911284.631   3821292.721  -4944775.459
10 0 59829  54222.000000  0    3445022.752   4164898.515  -4278826.847
10 0 59829  54342.000000  0    3924128.829   4427183.124  -3537910.884
10 0 59829  54462.000000  0    4338740.153   4604543.917  -2734944.127
10 0 59829  54582.000000  0    4680056.189   4695016.781  -1883962.031
10 0 59829  54702.000000  0    4940529.384   4698299.042   -999875.655
10 0 59829  54822.000000  0    5114035.178   4615738.743    -98207.120
10 0 59829  54942.000000  0    5196013.697   4450290.269    805188.531
10 0 59829  55062.000000  0    5183582.307   4206438.407   1694408.731
10 0 59829  55182.000000  0    5075616.646   3890091.187   2553791.987
10 0 59829  55302.000000  0    4872794.706   3508443.001   3368203.441
10 0 59829  55422.000000  0    4577602.790   3069812.837   4123308.565
10 0 59829  55542.000000  0    4194305.274   2583461.793   4805829.428
10 0 59829  55662.000000  0    3728880.171   2059395.607   5403779.542
10 0 59829  55782.000000  0    3188917.859   1508156.349   5906673.796
10 0 59829  55902.000000  0    2583490.505    940607.383   6305707.217
10 0 59829  56022.000000  0    1922994.271    367717.505   6593901.731
10 0 59829  56142.000000  0    1218967.826   -199649.780   6766222.183
10 0 59829  56262.000000  0     483888.578   -750941.581   6819660.997
10 0 59829  56382.000000  0    -269049.748  -1276112.040   6753286.803
10 0 59829  56502.000000  0   -1026173.834  -1765804.868   6568259.039
10 0 59829  56622.000000  0   -1773578.242  -2211520.070   6267807.536
10 0 59829  56742.000000  0   -2497378.305  -2605760.870   5857179.278
10 0 59829  56862.000000  0   -3183967.779  -2942161.573   5343555.230
10 0 59829  56982.000000  0   -3820279.477  -3215594.201   4735931.495
10 0 59829  57102.000000  0   -4394038.603  -3422249.066   4044965.402
10 0 59829  57222.000000  0   -4894004.594  -3559688.704   3282792.114
10 0 59829  57342.000000  0   -5310197.321  -3626874.327   2462813.942
10 0 59829  57462.000000  0   -5634103.622  -3624164.783   1599464.049
10 0 59829  57582.000000  0   -5858856.877  -3553286.160    707947.218
10 0 59829  57702.000000  0   -5979385.004  -3417272.219   -196034.867
10 0 59829  57822.000000  0   -5992523.659  -3220378.347  -1096568.623
10 0 59829  57942.000000  0   -5897090.714  -2967970.092  -1977818.976
10 0 59829  58062.000000  0   -5693918.715  -2666389.009  -2824315.966
10 0 59829  58182.000000  0   -5385847.602  -2322801.085  -3621231.137
10 0 59829  58302.000000  0   -4977677.543  -1945031.132  -4354639.228
10 0 59829  58422.000000  0   -4476084.359  -1541387.719  -5011759.559
10 0 59829  58542.000000  0   -3889499.807  -1120482.838  -5581173.978
10 0 59829  58662.000000  0   -3227959.559   -691050.092  -6053016.666
10 0 59829  58782.000000  0   -2502924.002   -261766.167  -6419133.936
10 0 59829  58902.000000  0   -1727075.330    158920.830  -6673213.604
99
